IRIDIUM 136             
1 42962U 17061H   24259.47623111  .00000133  00000+0  40349-4 0  9995
2 42962  86.3925 292.5812 0002075  90.1821 269.9613 14.34219931363142
